ONEWEB-0243             
1 48774U 21045H   25307.70705362 -.00000052  00000+0 -17185-3 0  9992
2 48774  87.8963 304.2195 0002008 101.0970 259.0386 13.15546987214712
ONEWEB-0222             
1 48775U 21045J   25306.47349882 -.00000026  00000+0 -10378-3 0  9995
2 48775  87.8961 304.4176 0001970  93.4948 266.6408 13.15550549214592
ONEWEB-0244             
1 48776U 21045K   25306.49965169 -.00000039  00000+0 -13803-3 0  9990
2 48776  87.8969 304.3980 0001950  94.5746 265.5607 13.15548668215161
ONEWEB-0247             
1 48777U 21045L   25306.49647713 -.00000110  00000+0 -32668-3 0  9993
2 48777  87.8951 304.4619 0002417 114.5493 245.5889 13.15549643214606
ONEWEB-0245             
1 48778U 21045M   25307.70863206 -.00000089  00000+0 -26930-3 0  9996
2 48778  87.8952 304.1834 0002082  89.2811 270.8558 13.15550092214732
ONEWEB-0229             
1 48779U 21045N   25307.70388280 -.00000019  00000+0 -83323-4 0  9994
2 48779  87.8954 304.1832 0001829  95.0154 265.1185 13.15549509214763
ONEWEB-0228             
1 48780U 21045P   25307.73730125  .00000144  00000+0  34879-3 0  9996
2 48780  87.8962 304.1566 0001925  94.2772 265.8579 13.15549360214682
ONEWEB-0232             
1 48781U 21045Q   25306.49489012 -.00000059  00000+0 -18953-3 0  9997
2 48781  87.8966 304.3958 0001907  92.2818 267.8530 13.15549577214840
ONEWEB-0231             
1 48782U 21045R   25306.47271624 -.00000037  00000+0 -13106-3 0  9995
2 48782  87.8953 304.4481 0001970  99.1753 260.9600 13.15549648214530
ONEWEB-0234             
1 48783U 21045S   25306.43454183  .00000169  00000+0  41402-3 0  9999
2 48783  87.8957 304.4275 0002383  71.6247 288.5142 13.15549471214663
ONEWEB-0238             
1 48784U 21045T   25307.72780020 -.00000030  00000+0 -11489-3 0  9996
2 48784  87.8951 304.1634 0001987  81.5788 278.5568 13.15546442214737
ONEWEB-0240             
1 48785U 21045U   25307.74906038  .00000169  00000+0  41430-3 0  9998
2 48785  87.8971 304.1478 0002261  91.6974 268.4415 13.15549090214765
ONEWEB-0246             
1 48786U 21045V   25307.74351105  .00000161  00000+0  39329-3 0  9994
2 48786  87.8965 304.1622 0001837  96.3889 263.7450 13.15548661214631
ONEWEB-0210             
1 48787U 21045W   25306.50123870  .00000023  00000+0  26546-4 0  9999
2 48787  87.8966 304.4096 0002030 110.5603 249.5745 13.15549523214514
ONEWEB-0214             
1 48788U 21045X   25307.72687500  .00000021  00000+0  20893-4 0  9997
2 48788  87.8973 304.1521 0001769 105.1353 254.9973 13.15548752214643
ONEWEB-0221             
1 48789U 21045Y   25306.44102516  .00000036  00000+0  61529-4 0  9992
2 48789  87.8958 304.4301 0001995  96.2537 263.8820 13.15550174214563
ONEWEB-0213             
1 48790U 21045Z   25306.42993904  .00000162  00000+0  39641-3 0  9990
2 48790  87.8959 304.4415 0001995  98.4385 261.6972 13.15548822214625
