[{"OBJECT_NAME":"ONEWEB-0243","OBJECT_ID":"2021-045H","EPOCH":"2025-11-03T16:58:09.432768","MEAN_MOTION":13.15546987,"ECCENTRICITY":0.0002008,"INCLINATION":87.8963,"RA_OF_ASC_NODE":304.2195,"ARG_OF_PERICENTER":101.097,"MEAN_ANOMALY":259.0386,"EPHEMERIS_TYPE":0,"CLASSIFICATION_TYPE":"U","NORAD_CAT_ID":48774,"ELEMENT_SET_NO":999,"REV_AT_EPOCH":21471,"BSTAR":-0.00017185,"MEAN_MOTION_DOT":-5.2e-7,"MEAN_MOTION_DDOT":0},{"OBJECT_NAME":"ONEWEB-0222","OBJECT_ID":"2021-045J","EPOCH":"2025-11-02T11:21:50.298048","MEAN_MOTION":13.15550549,"ECCENTRICITY":0.000197,"INCLINATION":87.8961,"RA_OF_ASC_NODE":304.4176,"ARG_OF_PERICENTER":93.4948,"MEAN_ANOMALY":266.6408,"EPHEMERIS_TYPE":0,"CLASSIFICATION_TYPE":"U","NORAD_CAT_ID":48775,"ELEMENT_SET_NO":999,"REV_AT_EPOCH":21459,"BSTAR":-0.00010378,"MEAN_MOTION_DOT":-2.6e-7,"MEAN_MOTION_DDOT":0},{"OBJECT_NAME":"ONEWEB-0244","OBJECT_ID":"2021-045K","EPOCH":"2025-11-02T11:59:29.906016","MEAN_MOTION":13.15548668,"ECCENTRICITY":0.000195,"INCLINATION":87.8969,"RA_OF_ASC_NODE":304.398,"ARG_OF_PERICENTER":94.5746,"MEAN_ANOMALY":265.5607,"EPHEMERIS_TYPE":0,"CLASSIFICATION_TYPE":"U","NORAD_CAT_ID":48776,"ELEMENT_SET_NO":999,"REV_AT_EPOCH":21516,"BSTAR":-0.00013803,"MEAN_MOTION_DOT":-3.9e-7,"MEAN_MOTION_DDOT":0},{"OBJECT_NAME":"ONEWEB-0247","OBJECT_ID":"2021-045L","EPOCH":"2025-11-02T11:54:55.624032","MEAN_MOTION":13.15549643,"ECCENTRICITY":0.0002417,"INCLINATION":87.8951,"RA_OF_ASC_NODE":304.4619,"ARG_OF_PERICENTER":114.5493,"MEAN_ANOMALY":245.5889,"EPHEMERIS_TYPE":0,"CLASSIFICATION_TYPE":"U","NORAD_CAT_ID":48777,"ELEMENT_SET_NO":999,"REV_AT_EPOCH":21460,"BSTAR":-0.00032668,"MEAN_MOTION_DOT":-1.1e-6,"MEAN_MOTION_DDOT":0},{"OBJECT_NAME":"ONEWEB-0245","OBJECT_ID":"2021-045M","EPOCH":"2025-11-03T17:00:25.809984","MEAN_MOTION":13.15550092,"ECCENTRICITY":0.0002082,"INCLINATION":87.8952,"RA_OF_ASC_NODE":304.1834,"ARG_OF_PERICENTER":89.2811,"MEAN_ANOMALY":270.8558,"EPHEMERIS_TYPE":0,"CLASSIFICATION_TYPE":"U","NORAD_CAT_ID":48778,"ELEMENT_SET_NO":999,"REV_AT_EPOCH":21473,"BSTAR":-0.0002693,"MEAN_MOTION_DOT":-8.9e-7,"MEAN_MOTION_DDOT":0},{"OBJECT_NAME":"ONEWEB-0229","OBJECT_ID":"2021-045N","EPOCH":"2025-11-03T16:53:35.473920","MEAN_MOTION":13.15549509,"ECCENTRICITY":0.0001829,"INCLINATION":87.8954,"RA_OF_ASC_NODE":304.1832,"ARG_OF_PERICENTER":95.0154,"MEAN_ANOMALY":265.1185,"EPHEMERIS_TYPE":0,"CLASSIFICATION_TYPE":"U","NORAD_CAT_ID":48779,"ELEMENT_SET_NO":999,"REV_AT_EPOCH":21476,"BSTAR":-8.3323e-5,"MEAN_MOTION_DOT":-1.9e-7,"MEAN_MOTION_DDOT":0},{"OBJECT_NAME":"ONEWEB-0228","OBJECT_ID":"2021-045P","EPOCH":"2025-11-03T17:41:42.828000","MEAN_MOTION":13.1554936,"ECCENTRICITY":0.0001925,"INCLINATION":87.8962,"RA_OF_ASC_NODE":304.1566,"ARG_OF_PERICENTER":94.2772,"MEAN_ANOMALY":265.8579,"EPHEMERIS_TYPE":0,"CLASSIFICATION_TYPE":"U","NORAD_CAT_ID":48780,"ELEMENT_SET_NO":999,"REV_AT_EPOCH":21468,"BSTAR":0.00034879,"MEAN_MOTION_DOT":1.44e-6,"MEAN_MOTION_DDOT":0},{"OBJECT_NAME":"ONEWEB-0232","OBJECT_ID":"2021-045Q","EPOCH":"2025-11-02T11:52:38.506368","MEAN_MOTION":13.15549577,"ECCENTRICITY":0.0001907,"INCLINATION":87.8966,"RA_OF_ASC_NODE":304.3958,"ARG_OF_PERICENTER":92.2818,"MEAN_ANOMALY":267.853,"EPHEMERIS_TYPE":0,"CLASSIFICATION_TYPE":"U","NORAD_CAT_ID":48781,"ELEMENT_SET_NO":999,"REV_AT_EPOCH":21484,"BSTAR":-0.00018953,"MEAN_MOTION_DOT":-5.9e-7,"MEAN_MOTION_DDOT":0},{"OBJECT_NAME":"ONEWEB-0231","OBJECT_ID":"2021-045R","EPOCH":"2025-11-02T11:20:42.683136","MEAN_MOTION":13.15549648,"ECCENTRICITY":0.000197,"INCLINATION":87.8953,"RA_OF_ASC_NODE":304.4481,"ARG_OF_PERICENTER":99.1753,"MEAN_ANOMALY":260.96,"EPHEMERIS_TYPE":0,"CLASSIFICATION_TYPE":"U","NORAD_CAT_ID":48782,"ELEMENT_SET_NO":999,"REV_AT_EPOCH":21453,"BSTAR":-0.00013106,"MEAN_MOTION_DOT":-3.7e-7,"MEAN_MOTION_DDOT":0},{"OBJECT_NAME":"ONEWEB-0234","OBJECT_ID":"2021-045S","EPOCH":"2025-11-02T10:25:44.414112","MEAN_MOTION":13.15549471,"ECCENTRICITY":0.0002383,"INCLINATION":87.8957,"RA_OF_ASC_NODE":304.4275,"ARG_OF_PERICENTER":71.6247,"MEAN_ANOMALY":288.5142,"EPHEMERIS_TYPE":0,"CLASSIFICATION_TYPE":"U","NORAD_CAT_ID":48783,"ELEMENT_SET_NO":999,"REV_AT_EPOCH":21466,"BSTAR":0.00041402,"MEAN_MOTION_DOT":1.69e-6,"MEAN_MOTION_DDOT":0},{"OBJECT_NAME":"ONEWEB-0238","OBJECT_ID":"2021-045T","EPOCH":"2025-11-03T17:28:01.937280","MEAN_MOTION":13.15546442,"ECCENTRICITY":0.0001987,"INCLINATION":87.8951,"RA_OF_ASC_NODE":304.1634,"ARG_OF_PERICENTER":81.5788,"MEAN_ANOMALY":278.5568,"EPHEMERIS_TYPE":0,"CLASSIFICATION_TYPE":"U","NORAD_CAT_ID":48784,"ELEMENT_SET_NO":999,"REV_AT_EPOCH":21473,"BSTAR":-0.00011489,"MEAN_MOTION_DOT":-3.0e-7,"MEAN_MOTION_DDOT":0},{"OBJECT_NAME":"ONEWEB-0240","OBJECT_ID":"2021-045U","EPOCH":"2025-11-03T17:58:38.816832","MEAN_MOTION":13.1554909,"ECCENTRICITY":0.0002261,"INCLINATION":87.8971,"RA_OF_ASC_NODE":304.1478,"ARG_OF_PERICENTER":91.6974,"MEAN_ANOMALY":268.4415,"EPHEMERIS_TYPE":0,"CLASSIFICATION_TYPE":"U","NORAD_CAT_ID":48785,"ELEMENT_SET_NO":999,"REV_AT_EPOCH":21476,"BSTAR":0.0004143,"MEAN_MOTION_DOT":1.69e-6,"MEAN_MOTION_DDOT":0},{"OBJECT_NAME":"ONEWEB-0246","OBJECT_ID":"2021-045V","EPOCH":"2025-11-03T17:50:39.354720","MEAN_MOTION":13.15548661,"ECCENTRICITY":0.0001837,"INCLINATION":87.8965,"RA_OF_ASC_NODE":304.1622,"ARG_OF_PERICENTER":96.3889,"MEAN_ANOMALY":263.745,"EPHEMERIS_TYPE":0,"CLASSIFICATION_TYPE":"U","NORAD_CAT_ID":48786,"ELEMENT_SET_NO":999,"REV_AT_EPOCH":21463,"BSTAR":0.00039329,"MEAN_MOTION_DOT":1.61e-6,"MEAN_MOTION_DDOT":0},{"OBJECT_NAME":"ONEWEB-0210","OBJECT_ID":"2021-045W","EPOCH":"2025-11-02T12:01:47.023680","MEAN_MOTION":13.15549523,"ECCENTRICITY":0.000203,"INCLINATION":87.8966,"RA_OF_ASC_NODE":304.4096,"ARG_OF_PERICENTER":110.5603,"MEAN_ANOMALY":249.5745,"EPHEMERIS_TYPE":0,"CLASSIFICATION_TYPE":"U","NORAD_CAT_ID":48787,"ELEMENT_SET_NO":999,"REV_AT_EPOCH":21451,"BSTAR":2.6546e-5,"MEAN_MOTION_DOT":2.3e-7,"MEAN_MOTION_DDOT":0},{"OBJECT_NAME":"ONEWEB-0214","OBJECT_ID":"2021-045X","EPOCH":"2025-11-03T17:26:42.000000","MEAN_MOTION":13.15548752,"ECCENTRICITY":0.0001769,"INCLINATION":87.8973,"RA_OF_ASC_NODE":304.1521,"ARG_OF_PERICENTER":105.1353,"MEAN_ANOMALY":254.9973,"EPHEMERIS_TYPE":0,"CLASSIFICATION_TYPE":"U","NORAD_CAT_ID":48788,"ELEMENT_SET_NO":999,"REV_AT_EPOCH":21464,"BSTAR":2.0893e-5,"MEAN_MOTION_DOT":2.1e-7,"MEAN_MOTION_DDOT":0},{"OBJECT_NAME":"ONEWEB-0221","OBJECT_ID":"2021-045Y","EPOCH":"2025-11-02T10:35:04.573824","MEAN_MOTION":13.15550174,"ECCENTRICITY":0.0001995,"INCLINATION":87.8958,"RA_OF_ASC_NODE":304.4301,"ARG_OF_PERICENTER":96.2537,"MEAN_ANOMALY":263.882,"EPHEMERIS_TYPE":0,"CLASSIFICATION_TYPE":"U","NORAD_CAT_ID":48789,"ELEMENT_SET_NO":999,"REV_AT_EPOCH":21456,"BSTAR":6.1529e-5,"MEAN_MOTION_DOT":3.6e-7,"MEAN_MOTION_DDOT":0},{"OBJECT_NAME":"ONEWEB-0213","OBJECT_ID":"2021-045Z","EPOCH":"2025-11-02T10:19:06.733056","MEAN_MOTION":13.15548822,"ECCENTRICITY":0.0001995,"INCLINATION":87.8959,"RA_OF_ASC_NODE":304.4415,"ARG_OF_PERICENTER":98.4385,"MEAN_ANOMALY":261.6972,"EPHEMERIS_TYPE":0,"CLASSIFICATION_TYPE":"U","NORAD_CAT_ID":48790,"ELEMENT_SET_NO":999,"REV_AT_EPOCH":21462,"BSTAR":0.00039641,"MEAN_MOTION_DOT":1.62e-6,"MEAN_MOTION_DDOT":0}]
